CCSDS_OEM_VERS = 2.0
CREATION_DATE  = 2024-06-01T08:56:32.257
ORIGINATOR     = NASA/JSC/FOD/TOPO

META_START
OBJECT_NAME          = ISS
OBJECT_ID            = 1998-067-A
CENTER_NAME          = Earth
REF_FRAME            = EME2000
TIME_SYSTEM          = UTC
START_TIME           = 2024-05-31T12:00:00.000
USEABLE_START_TIME   = 2024-05-31T12:00:00.000
USEABLE_STOP_TIME    = 2024-06-15T12:00:00.000
STOP_TIME            = 2024-06-15T12:00:00.000
META_STOP

COMMENT Source: This file was produced by the TOPO office within FOD at JSC.
COMMENT Units are in kg and m^2
COMMENT MASS=453904.00
COMMENT DRAG_AREA=2041.10
COMMENT DRAG_COEFF=2.20
COMMENT SOLAR_RAD_AREA=0.00
COMMENT SOLAR_RAD_COEFF=0.00
COMMENT Orbits start at the ascending node epoch
COMMENT ISS first asc. node: EPOCH = 2024-05-31T12:08:27.377 $ ORBIT = 1596 $ LAN(DEG) = -33.60989
COMMENT ISS last asc. node : EPOCH = 2024-06-15T10:59:22.529 $ ORBIT = 1828 $ LAN(DEG) = -105.22467
COMMENT Begin sequence of events
COMMENT TRAJECTORY EVENT SUMMARY:
COMMENT 
COMMENT |       EVENT        |       TIG        | ORB |   DV    |   HA    |   HP    |
COMMENT |                    |       GMT        |     |   M/S   |   KM    |   KM    |
COMMENT |                    |                  |     |  (F/S)  |  (NM)   |  (NM)   |
COMMENT =============================================================================
COMMENT  88P_Docking           153:11:47:30.000             0.0     416.1     412.3
COMMENT                                                    (0.0)   (224.7)   (222.6)
COMMENT 
COMMENT  CFT_Launch            153:16:25:40.000             0.0     416.5     412.3
COMMENT                                                    (0.0)   (224.9)   (222.6)
COMMENT 
COMMENT  CFT_Dock              154:17:48:47.000             0.0     416.1     412.1
COMMENT                                                    (0.0)   (224.7)   (222.5)
COMMENT 
COMMENT  GMT 159 Cygnus Reboo  159:15:19:00.000             1.1     415.8     411.4
COMMENT                                                    (3.6)   (224.5)   (222.2)
COMMENT 
COMMENT  CFT_Undock            162:09:50:00.000             0.0     418.1     412.5
COMMENT                                                    (0.0)   (225.8)   (222.8)
COMMENT 
COMMENT  GMT167 Reboost        167:04:10:00.000             1.4     419.6     410.2
COMMENT                                                    (4.6)   (226.6)   (221.5)
COMMENT 
COMMENT =============================================================================
COMMENT End sequence of events
2024-06-10T02:06:01.589 -3443.992658497720 -3300.667387882910 -4838.140963801580 6.52439488260093 -3.13056985479687 -2.50286057049086
2024-06-10T02:10:01.589 -1772.130960610940 -3923.098334448660 -5255.427558937610 7.32286373883377 -2.02479552193558 -0.95334950547587
2024-06-10T02:14:01.589 28.358237670442 -4260.782973883550 -5290.183814274520 7.58980339064949 -0.77204322601550 0.66555867033574
2024-06-10T02:18:01.589 1826.782722448230 -4289.130846887720 -4939.777912851110 7.30566277814356 0.53741663004685 2.23683384477452
2024-06-10T02:22:01.589 3492.467390556020 -4005.856414948300 -4229.461870042800 6.49019171989536 1.80903420608493 3.64650320591251
2024-06-10T02:26:01.589 4904.117986226890 -3431.232697963480 -3210.665814174550 5.20143273318785 2.95046948647948 4.79167510240408
2024-06-10T02:30:01.589 5958.648235942720 -2606.769483396250 -1957.435131317190 3.53230498632835 3.87818890830473 5.58798566979390
2024-06-10T02:34:01.589 6578.866290990400 -1592.320500417520 -561.150751117120 1.60437008305686 4.52386839584308 5.97633198938159
2024-06-10T02:38:01.589 6719.321157118220 -461.759269193027 876.159784932472 -0.44107022587177 4.83979089707523 5.92772099449635
2024-06-10T02:42:01.589 6369.782733355200 702.471322319891 2249.400354325860 -2.45372506712647 4.80275645794334 5.44576228282677
2024-06-10T02:46:01.589 5555.996808066530 1815.508903599410 3458.250461253540 -4.28605332050956 4.41590116199567 4.56634844085032
2024-06-10T02:50:01.589 4337.649957291850 2796.367483323880 4414.594402098210 -5.80451081345776 3.70812821198000 3.35459173432282
2024-06-10T02:54:01.589 2803.800629024920 3573.857449107810 5048.952834327340 -6.89939474153287 2.73158053971234 1.89961727755955
2024-06-10T02:58:01.589 1066.197647300940 4091.679112390910 5315.406791329770 -7.49227785439679 1.55740426308536 0.30741192572150
2024-06-10T03:02:01.589 -748.846152451051 4312.377199321870 5194.764142881600 -7.54088949320744 0.27056422952960 -1.30657926134768
2024-06-10T03:06:01.589 -2509.515874982850 4219.965495618370 4695.870458795740 -7.04190100102017 -1.03603299940853 -2.82552715264245
2024-06-10T03:10:01.589 -4087.914652696360 3821.066780072160 3854.960450974100 -6.03110365801879 -2.26797676071316 -4.13933718559561
2024-06-10T03:14:01.589 -5369.228967788190 3144.491887367240 2733.115291818170 -4.58118192100492 -3.33586485314422 -5.15227948067921
2024-06-10T03:18:01.589 -6260.082505494430 2239.258354512480 1411.958379504800 -2.79711382342662 -4.16175450027549 -5.78999393090791
2024-06-10T03:22:01.589 -6695.469823546370 1171.112944659930 -12.215242705364 -0.80889564115277 -4.68509877332697 -6.00542009631573
2024-06-10T03:26:01.589 -6643.640820548040 17.751895346983 -1435.497184869930 1.23807366205160 -4.86753053655923 -5.78261672678203
2024-06-10T03:30:01.589 -6108.489810996540 -1136.905655107430 -2754.054451456160 3.19409306043500 -4.69588794394006 -5.13814673876890
2024-06-10T03:34:01.589 -5129.204219404260 -2208.913664906630 -3871.810113368080 4.91661072146709 -4.18307360324737 -4.11962177380176
2024-06-10T03:38:01.589 -3777.253943771140 -3120.448001209060 -4707.471160874750 6.28080538890687 -3.36682533469560 -2.80178763686861
2024-06-10T03:42:01.589 -2151.035696951000 -3805.424135221390 -5200.365250989480 7.18838536056430 -2.30658237793767 -1.28064252831160
2024-06-10T03:46:01.589 -368.679135713354 -4214.187193644810 -5314.715486720000 7.57409211656340 -1.07898470043193 0.33358377186902
2024-06-10T03:50:01.589 1440.436023488640 -4317.012228138500 -5042.141171908160 7.40995455160343 0.22747770083309 1.92416138914931
2024-06-10T03:54:01.589 3144.899243576280 -4106.231191726390 -4402.250674189680 6.70711847086362 1.51854131410130 3.37588858007631
2024-06-10T03:58:01.589 4620.651083787350 -3596.855417367660 -3441.336760552540 5.51546181765385 2.70056674085550 4.58291996145277
2024-06-10T04:02:01.589 5759.988793230180 -2825.625013309850 -2229.186181163460 3.92067497383012 3.68722782811463 5.45654067084975
2024-06-10T04:06:01.589 6479.538000930110 -1848.478234925090 -854.132608421033 2.03867012494338 4.40589809997078 5.93195465423421
2024-06-10T04:10:01.589 6726.571558154840 -736.541919626742 583.372145113416 0.00730403028657 4.80351299854142 5.97370444897740
2024-06-10T04:14:01.589 6483.031831578700 429.110419993755 1978.212424682700 -2.02421865078009 4.85078854504588 5.57863904912326
2024-06-10T04:18:01.589 5766.894703980390 1563.484855323080 3228.448647920750 -3.90678797522263 4.54455658669443 4.77621303901189
2024-06-10T04:22:01.589 4630.738166756640 2583.995661010390 4242.900177554670 -5.50301625295878 3.90785786708937 3.62595910409095
2024-06-10T04:26:01.589 3157.679923117760 3416.529862234800 4947.811429136730 -6.69733423598040 2.98774308010738 2.21259762602210
2024-06-10T04:30:01.589 1455.118942667440 4000.774208614870 5292.125113506740 -7.40407225358042 1.85140957594964 0.63932433145581
2024-06-10T04:34:01.589 -353.137483994523 4294.471679313890 5251.013880913780 -7.57287893902333 0.58119915018720 -0.97976702612969
2024-06-10T04:38:01.589 -2135.763636258520 4276.363860228930 4827.556000610340 -7.19176817897571 -0.73122715071411 -2.52753333734402
2024-06-10T04:42:01.589 -3763.277721729860 3947.700550532700 4052.515477973930 -6.28806633226212 -1.99104715114143 -3.89176718666595
2024-06-10T04:46:01.589 -5117.336862055420 3332.201291925240 2982.185732450220 -4.92675396608873 -3.10694947604217 -4.97319695543912
2024-06-10T04:50:01.589 -6099.310188866740 2474.427303090220 1694.413820039080 -3.20622751528902 -3.99761101328260 -5.69259429238723
2024-06-10T04:54:01.589 -6637.557640051000 1436.644909315990 283.029850923448 -1.25169016638516 -4.59777636348210 -5.99690360297478
2024-06-10T04:58:01.589 -6692.811251387900 294.323832001586 -1149.004795491640 0.79399366662110 -4.86340889639492 -5.86361698372373
2024-06-10T05:02:01.589 -6261.134835802160 -869.412989081523 -2497.208288870580 2.78115999765918 -4.77519092656117 -5.30266637602810
2024-06-10T05:06:01.589 -5374.174319164590 -1969.936622251050 -3663.316140126760 4.56485355301661 -4.33993425448782 -4.35555219616836
2024-06-10T05:10:01.589 -4096.702332499780 -2927.328309706840 -4562.486691027430 6.01566650467119 -3.58977159865231 -3.09186444214960
2024-06-10T05:14:01.589 -2521.742095513500 -3672.163159561470 -5129.418229583360 7.02895181475779 -2.57943000052892 -1.60379267309874
2024-06-10T05:18:01.589 -763.732593982579 -4150.456305039220 -5322.967457402210 7.53187347132501 -1.38204833093921 0.00075562327628
2024-06-10T05:22:01.589 1049.714868194100 -4327.466879295900 -5129.018057602470 7.48807179833157 -0.08392256511270 1.60576030425790
2024-06-10T05:26:01.589 2786.904547931000 -4190.167811541600 -4561.486350648940 6.90011300558953 1.22131837862871 3.09498488769814
2024-06-10T05:30:01.589 4321.464297212200 -3748.239703261060 -3661.396999121210 5.80957240052511 2.43917439548169 4.36007950835073
2024-06-10T05:34:01.589 5541.463354876780 -3033.494987935290 -2494.066664984840 4.29464933373315 3.48080993526412 5.30820742458345
2024-06-10T05:38:01.589 6357.671607051450 -2097.720881241940 -1144.505294307470 2.46522984485879 4.26968488654627 5.86918987051395
2024-06-10T05:42:01.589 6710.280145552140 -1008.989440675660 288.740000758002 0.45510903465148 4.74754537376516 6.00119090521045
